CCSDS_OMM_VERS = 2.0
CREATION_DATE  = 
ORIGINATOR     = 

OBJECT_NAME    = ATLAS CENTAUR R/B
OBJECT_ID      = 1972-065B
CENTER_NAME    = EARTH
REF_FRAME      = TEME
TIME_SYSTEM    = UTC
MEAN_ELEMENT_THEORY = SGP/SGP4

EPOCH          = 2026-02-07T06:54:17.514144
MEAN_MOTION    = 14.77597814
ECCENTRICITY   = .00331267
INCLINATION    = 35.0010
RA_OF_ASC_NODE = 123.9057
ARG_OF_PERICENTER = 114.6511
MEAN_ANOMALY   = 245.7645

EPHEMERIS_TYPE = 0
CLASSIFICATION_TYPE = U
NORAD_CAT_ID   = 6155
ELEMENT_SET_NO = 999
REV_AT_EPOCH   = 83676
BSTAR          = .25445402E-3
MEAN_MOTION_DOT = .1842E-4
MEAN_MOTION_DDOT = 0

CCSDS_OMM_VERS = 2.0
CREATION_DATE  = 
ORIGINATOR     = 

OBJECT_NAME    = SL-8 R/B
OBJECT_ID      = 1975-112B
CENTER_NAME    = EARTH
REF_FRAME      = TEME
TIME_SYSTEM    = UTC
MEAN_ELEMENT_THEORY = SGP/SGP4

EPOCH          = 2026-02-07T05:52:13.058976
MEAN_MOTION    = 14.38188572
ECCENTRICITY   = .00154843
INCLINATION    = 74.0593
RA_OF_ASC_NODE = 74.9215
ARG_OF_PERICENTER = 178.6957
MEAN_ANOMALY   = 181.4240

EPHEMERIS_TYPE = 0
CLASSIFICATION_TYPE = U
NORAD_CAT_ID   = 8459
ELEMENT_SET_NO = 999
REV_AT_EPOCH   = 62749
BSTAR          = .90829735E-4
MEAN_MOTION_DOT = .25E-5
MEAN_MOTION_DDOT = 0

CCSDS_OMM_VERS = 2.0
CREATION_DATE  = 
ORIGINATOR     = 

OBJECT_NAME    = SL-3 R/B
OBJECT_ID      = 1977-057B
CENTER_NAME    = EARTH
REF_FRAME      = TEME
TIME_SYSTEM    = UTC
MEAN_ELEMENT_THEORY = SGP/SGP4

EPOCH          = 2026-02-07T06:41:57.138720
MEAN_MOTION    = 15.44610484
ECCENTRICITY   = .00081107
INCLINATION    = 97.5733
RA_OF_ASC_NODE = 208.8909
ARG_OF_PERICENTER = 39.8436
MEAN_ANOMALY   = 320.3406

EPHEMERIS_TYPE = 0
CLASSIFICATION_TYPE = U
NORAD_CAT_ID   = 10114
ELEMENT_SET_NO = 999
REV_AT_EPOCH   = 66363
BSTAR          = .36849786E-3
MEAN_MOTION_DOT = .17088E-3
MEAN_MOTION_DDOT = 0

CCSDS_OMM_VERS = 2.0
CREATION_DATE  = 
ORIGINATOR     = 

OBJECT_NAME    = SEASAT 1
OBJECT_ID      = 1978-064A
CENTER_NAME    = EARTH
REF_FRAME      = TEME
TIME_SYSTEM    = UTC
MEAN_ELEMENT_THEORY = SGP/SGP4

EPOCH          = 2026-02-06T23:46:54.031296
MEAN_MOTION    = 14.46135167
ECCENTRICITY   = .0001557
INCLINATION    = 108.0164
RA_OF_ASC_NODE = 61.0739
ARG_OF_PERICENTER = 291.5165
MEAN_ANOMALY   = 68.5815

EPHEMERIS_TYPE = 0
CLASSIFICATION_TYPE = U
NORAD_CAT_ID   = 10967
ELEMENT_SET_NO = 999
REV_AT_EPOCH   = 50207
BSTAR          = .16607E-3
MEAN_MOTION_DOT = .457E-5
MEAN_MOTION_DDOT = 0

CCSDS_OMM_VERS = 2.0
CREATION_DATE  = 
ORIGINATOR     = 

OBJECT_NAME    = SL-14 R/B
OBJECT_ID      = 1979-011B
CENTER_NAME    = EARTH
REF_FRAME      = TEME
TIME_SYSTEM    = UTC
MEAN_ELEMENT_THEORY = SGP/SGP4

EPOCH          = 2026-02-07T07:57:23.476608
MEAN_MOTION    = 14.91870643
ECCENTRICITY   = .00167021
INCLINATION    = 82.5256
RA_OF_ASC_NODE = 125.3754
ARG_OF_PERICENTER = 154.3079
MEAN_ANOMALY   = 205.8974

EPHEMERIS_TYPE = 0
CLASSIFICATION_TYPE = U
NORAD_CAT_ID   = 11267
ELEMENT_SET_NO = 999
REV_AT_EPOCH   = 52425
BSTAR          = .84536503E-4
MEAN_MOTION_DOT = .881E-5
MEAN_MOTION_DDOT = 0

CCSDS_OMM_VERS = 2.0
CREATION_DATE  = 
ORIGINATOR     = 

OBJECT_NAME    = SL-8 R/B
OBJECT_ID      = 1979-089B
CENTER_NAME    = EARTH
REF_FRAME      = TEME
TIME_SYSTEM    = UTC
MEAN_ELEMENT_THEORY = SGP/SGP4

EPOCH          = 2026-02-07T07:07:01.351488
MEAN_MOTION    = 14.42331592
ECCENTRICITY   = .00165194
INCLINATION    = 74.0698
RA_OF_ASC_NODE = 147.3023
ARG_OF_PERICENTER = 323.7917
MEAN_ANOMALY   = 36.2120

EPHEMERIS_TYPE = 0
CLASSIFICATION_TYPE = U
NORAD_CAT_ID   = 11574
ELEMENT_SET_NO = 999
REV_AT_EPOCH   = 43172
BSTAR          = .13219567E-3
MEAN_MOTION_DOT = .411E-5
MEAN_MOTION_DDOT = 0

CCSDS_OMM_VERS = 2.0
CREATION_DATE  = 
ORIGINATOR     = 

OBJECT_NAME    = SL-14 R/B
OBJECT_ID      = 1980-005B
CENTER_NAME    = EARTH
REF_FRAME      = TEME
TIME_SYSTEM    = UTC
MEAN_ELEMENT_THEORY = SGP/SGP4

EPOCH          = 2026-02-07T06:10:47.059104
MEAN_MOTION    = 14.90889608
ECCENTRICITY   = .00141196
INCLINATION    = 82.5174
RA_OF_ASC_NODE = 336.0942
ARG_OF_PERICENTER = 264.8771
MEAN_ANOMALY   = 95.0836

EPHEMERIS_TYPE = 0
CLASSIFICATION_TYPE = U
NORAD_CAT_ID   = 11672
ELEMENT_SET_NO = 999
REV_AT_EPOCH   = 47195
BSTAR          = .98349808E-4
MEAN_MOTION_DOT = .996E-5
MEAN_MOTION_DDOT = 0

CCSDS_OMM_VERS = 2.0
CREATION_DATE  = 
ORIGINATOR     = 

OBJECT_NAME    = SL-8 R/B
OBJECT_ID      = 1981-003B
CENTER_NAME    = EARTH
REF_FRAME      = TEME
TIME_SYSTEM    = UTC
MEAN_ELEMENT_THEORY = SGP/SGP4

EPOCH          = 2026-02-07T06:14:31.563456
MEAN_MOTION    = 15.09867622
ECCENTRICITY   = .0263511
INCLINATION    = 82.9393
RA_OF_ASC_NODE = 318.1361
ARG_OF_PERICENTER = 284.9429
MEAN_ANOMALY   = 72.2765

EPHEMERIS_TYPE = 0
CLASSIFICATION_TYPE = U
NORAD_CAT_ID   = 12139
ELEMENT_SET_NO = 999
REV_AT_EPOCH   = 31008
BSTAR          = .64355102E-3
MEAN_MOTION_DOT = .2426E-3
MEAN_MOTION_DDOT = 0

CCSDS_OMM_VERS = 2.0
CREATION_DATE  = 
ORIGINATOR     = 

OBJECT_NAME    = SL-3 R/B
OBJECT_ID      = 1981-046B
CENTER_NAME    = EARTH
REF_FRAME      = TEME
TIME_SYSTEM    = UTC
MEAN_ELEMENT_THEORY = SGP/SGP4

EPOCH          = 2026-02-07T06:38:30.215040
MEAN_MOTION    = 15.41141150
ECCENTRICITY   = .00206477
INCLINATION    = 81.2345
RA_OF_ASC_NODE = 326.2318
ARG_OF_PERICENTER = 121.6786
MEAN_ANOMALY   = 238.6473

EPHEMERIS_TYPE = 0
CLASSIFICATION_TYPE = U
NORAD_CAT_ID   = 12465
ELEMENT_SET_NO = 999
REV_AT_EPOCH   = 43374
BSTAR          = .40094271E-3
MEAN_MOTION_DOT = .16777E-3
MEAN_MOTION_DDOT = 0

CCSDS_OMM_VERS = 2.0
CREATION_DATE  = 
ORIGINATOR     = 

OBJECT_NAME    = SL-3 R/B
OBJECT_ID      = 1981-103B
CENTER_NAME    = EARTH
REF_FRAME      = TEME
TIME_SYSTEM    = UTC
MEAN_ELEMENT_THEORY = SGP/SGP4

EPOCH          = 2026-02-07T06:01:20.096256
MEAN_MOTION    = 15.21008801
ECCENTRICITY   = .0013791
INCLINATION    = 81.1562
RA_OF_ASC_NODE = 249.1356
ARG_OF_PERICENTER = 31.4411
MEAN_ANOMALY   = 328.7642

EPHEMERIS_TYPE = 0
CLASSIFICATION_TYPE = U
NORAD_CAT_ID   = 12904
ELEMENT_SET_NO = 999
REV_AT_EPOCH   = 96860
BSTAR          = .33010913E-3
MEAN_MOTION_DOT = .7364E-4
MEAN_MOTION_DDOT = 0

CCSDS_OMM_VERS = 2.0
CREATION_DATE  = 
ORIGINATOR     = 

OBJECT_NAME    = SL-3 R/B
OBJECT_ID      = 1982-013B
CENTER_NAME    = EARTH
REF_FRAME      = TEME
TIME_SYSTEM    = UTC
MEAN_ELEMENT_THEORY = SGP/SGP4

EPOCH          = 2026-02-07T06:31:49.176480
MEAN_MOTION    = 15.21676726
ECCENTRICITY   = .00217649
INCLINATION    = 81.1742
RA_OF_ASC_NODE = 196.4071
ARG_OF_PERICENTER = 283.0644
MEAN_ANOMALY   = 76.8158

EPHEMERIS_TYPE = 0
CLASSIFICATION_TYPE = U
NORAD_CAT_ID   = 13068
ELEMENT_SET_NO = 999
REV_AT_EPOCH   = 39972
BSTAR          = .27004837E-3
MEAN_MOTION_DOT = .6171E-4
MEAN_MOTION_DDOT = 0

CCSDS_OMM_VERS = 2.0
CREATION_DATE  = 
ORIGINATOR     = 

OBJECT_NAME    = SL-3 R/B
OBJECT_ID      = 1982-039B
CENTER_NAME    = EARTH
REF_FRAME      = TEME
TIME_SYSTEM    = UTC
MEAN_ELEMENT_THEORY = SGP/SGP4

EPOCH          = 2026-02-07T05:46:45.655680
MEAN_MOTION    = 15.09912958
ECCENTRICITY   = .00300621
INCLINATION    = 81.1614
RA_OF_ASC_NODE = 251.0579
ARG_OF_PERICENTER = 64.0994
MEAN_ANOMALY   = 296.3325

EPHEMERIS_TYPE = 0
CLASSIFICATION_TYPE = U
NORAD_CAT_ID   = 13154
ELEMENT_SET_NO = 999
REV_AT_EPOCH   = 37704
BSTAR          = .19517181E-3
MEAN_MOTION_DOT = .322E-4
MEAN_MOTION_DDOT = 0

