ATLAS CENTAUR R/B       
1 06155U 72065B   26038.28770271  .00001842  00000+0  25445-3 0  9997
2 06155  35.0010 123.9057 0033126 114.6511 245.7645 14.77597814836765
SL-8 R/B                
1 08459U 75112B   26038.24459559  .00000250  00000+0  90830-4 0  9994
2 08459  74.0593  74.9215 0015484 178.6957 181.4240 14.38188572627494
SL-3 R/B                
1 10114U 77057B   26038.27913355  .00017088  00000+0  36850-3 0  9995
2 10114  97.5733 208.8909 0008110  39.8436 320.3406 15.44610484663631
SEASAT 1                
1 10967U 78064A   26037.99090314  .00000457  00000+0  16607-3 0  9999
2 10967 108.0164  61.0739 0001557 291.5165  68.5815 14.46135167502073
SL-14 R/B               
1 11267U 79011B   26038.33152172  .00000881  00000+0  84537-4 0  9995
2 11267  82.5256 125.3754 0016702 154.3079 205.8974 14.91870643524255
SL-8 R/B                
1 11574U 79089B   26038.29654342  .00000411  00000+0  13220-3 0  9991
2 11574  74.0698 147.3023 0016519 323.7917  36.2120 14.42331592431723
SL-14 R/B               
1 11672U 80005B   26038.25748911  .00000996  00000+0  98350-4 0  9998
2 11672  82.5174 336.0942 0014119 264.8771  95.0836 14.90889608471954
SL-8 R/B                
1 12139U 81003B   26038.26008754  .00024260  00000+0  64355-3 0  9998
2 12139  82.9393 318.1361 0263511 284.9429  72.2765 15.09867622310088
SL-3 R/B                
1 12465U 81046B   26038.27673860  .00016777  00000+0  40094-3 0  9992
2 12465  81.2345 326.2318 0020647 121.6786 238.6473 15.41141150433745
SL-3 R/B                
1 12904U 81103B   26038.25092704  .00007364  00000+0  33011-3 0  9997
2 12904  81.1562 249.1356 0013791  31.4411 328.7642 15.21008801968603
SL-3 R/B                
1 13068U 82013B   26038.27209695  .00006171  00000+0  27005-3 0  9992
2 13068  81.1742 196.4071 0021764 283.0644  76.8158 15.21676726399726
SL-3 R/B                
1 13154U 82039B   26038.24080620  .00003220  00000+0  19517-3 0  9999
2 13154  81.1614 251.0579 0030062  64.0994 296.3325 15.09912958377049
